{"type": "FeatureCollection", "features": [ {"type": "Feature", "properties": {"norad_id": 30344, "name": "FENGYUN 1C DEB", "group": "fengyun-1c-debris", "lat": -9.242945410739916, "lon": 60.33251665111426, "alt_km": 730.5579845136217, "timestamp": "2025-12-03T06:58:43.513663+00:00", "meta": {"OBJECT_NAME": "FENGYUN 1C DEB", "OBJECT_ID": "1999-025ABF", "EPOCH": "2025-12-02T04:47:58.286688", "MEAN_MOTION": 14.51408249, "ECCENTRICITY": 0.00085073, "INCLINATION": 98.8213, "RA_OF_ASC_NODE": 57.7405, "ARG_OF_PERICENTER": 149.9364, "MEAN_ANOMALY": 264.6015, "EPHEMERIS_TYPE": 0, "CLASSIFICATION_TYPE": "U", "NORAD_CAT_ID": 30344, "ELEMENT_SET_NO": 999, "REV_AT_EPOCH": 97924, "BSTAR": 0.0029273726, "MEAN_MOTION_DOT": 0.00011654, "MEAN_MOTION_DDOT": 0}, "tle": {"line1": "1 30344U 99025ABF 25336.19998017  .00011654  00000+0  29274-2 0  9994", "line2": "2 30344  98.8213  57.7405 0008507 149.9364 264.6015 14.51408249979244"}}, "geometry": {"type": "Point", "coordinates": [60.33251665111426, -9.242945410739916]}}, {"type": "Feature", "properties": {"norad_id": 30345, "name": "FENGYUN 1C DEB", "group": "fengyun-1c-debris", "lat": 17.726228197748874, "lon": 33.367403457766216, "alt_km": 757.7391815665269, "timestamp": "2025-12-03T06:58:43.513673+00:00", "meta": {"OBJECT_NAME": "FENGYUN 1C DEB", "OBJECT_ID": "1999-025ABG", "EPOCH": "2025-12-02T17:34:05.278656", "MEAN_MOTION": 14.41443339, "ECCENTRICITY": 0.0016512, "INCLINATION": 98.9222, "RA_OF_ASC_NODE": 35.6625, "ARG_OF_PERICENTER": 271.502, "MEAN_ANOMALY": 88.4276, "EPHEMERIS_TYPE": 0, "CLASSIFICATION_TYPE": "U", "NORAD_CAT_ID": 30345, "ELEMENT_SET_NO": 999, "REV_AT_EPOCH": 97629, "BSTAR": 0.0026603, "MEAN_MOTION_DOT": 8.605e-05, "MEAN_MOTION_DDOT": 0}, "tle": {"line1": "1 30345U 99025ABG 25336.73200554  .00008605  00000+0  26603-2 0  9992", "line2": "2 30345  98.9222  35.6625 0016512 271.5020  88.4276 14.41443339976292"}}, "geometry": {"type": "Point", "coordinates": [33.367403457766216, 17.726228197748874]}}, {"type": "Feature", "properties": {"norad_id": 30346, "name": "FENGYUN 1C DEB", "group": "fengyun-1c-debris", "lat": -7.291941417062089, "lon": 74.96092989063654, "alt_km": 762.8498774356776, "timestamp": "2025-12-03T06:58:43.513683+00:00", "meta": {"OBJECT_NAME": "FENGYUN 1C DEB", "OBJECT_ID": "1999-025ABH", "EPOCH": "2025-12-02T06:08:21.393024", "MEAN_MOTION": 14.33707407, "ECCENTRICITY": 0.0055943, "INCLINATION": 98.8093, "RA_OF_ASC_NODE": 72.7705, "ARG_OF_PERICENTER": 55.5978, "MEAN_ANOMALY": 358.827, "EPHEMERIS_TYPE": 0, "CLASSIFICATION_TYPE": "U", "NORAD_CAT_ID": 30346, "ELEMENT_SET_NO": 999, "REV_AT_EPOCH": 97263, "BSTAR": 0.0024011, "MEAN_MOTION_DOT": 6.743e-05, "MEAN_MOTION_DDOT": 0}, "tle": {"line1": "1 30346U 99025ABH 25336.25580316  .00006743  00000+0  24011-2 0  9999", "line2": "2 30346  98.8093  72.7705 0055943  55.5978 358.8270 14.33707407972634"}}, "geometry": {"type": "Point", "coordinates": [74.96092989063654, -7.291941417062089]}}, {"type": "Feature", "properties": {"norad_id": 30347, "name": "FENGYUN 1C DEB", "group": "fengyun-1c-debris", "lat": -22.191797987215956, "lon": 165.50422317927217, "alt_km": 907.7064115670846, "timestamp": "2025-12-03T06:58:43.513693+00:00", "meta": {"OBJECT_NAME": "FENGYUN 1C DEB", "OBJECT_ID": "1999-025ABJ", "EPOCH": "2025-12-02T19:05:19.663872", "MEAN_MOTION": 13.92761705, "ECCENTRICITY": 0.0150909, "INCLINATION": 98.3771, "RA_OF_ASC_NODE": 161.6097, "ARG_OF_PERICENTER": 61.2603, "MEAN_ANOMALY": 315.5134, "EPHEMERIS_TYPE": 0, "CLASSIFICATION_TYPE": "U", "NORAD_CAT_ID": 30347, "ELEMENT_SET_NO": 999, "REV_AT_EPOCH": 95822, "BSTAR": 0.00021484, "MEAN_MOTION_DOT": 2.68e-06, "MEAN_MOTION_DDOT": 0}, "tle": {"line1": "1 30347U 99025ABJ 25336.79536648  .00000268  00000+0  21484-3 0  9996", "line2": "2 30347  98.3771 161.6097 0150909  61.2603 315.5134 13.92761705958225"}}, "geometry": {"type": "Point", "coordinates": [165.50422317927217, -22.191797987215956]}}, {"type": "Feature", "properties": {"norad_id": 30348, "name": "FENGYUN 1C DEB", "group": "fengyun-1c-debris", "lat": -63.893121029390926, "lon": -126.77292760757352, "alt_km": 794.5653470334373, "timestamp": "2025-12-03T06:58:43.513703+00:00", "meta": {"OBJECT_NAME": "FENGYUN 1C DEB", "OBJECT_ID": "1999-025ABK", "EPOCH": "2025-12-02T20:23:26.479392", "MEAN_MOTION": 14.34916025, "ECCENTRICITY": 0.0017713, "INCLINATION": 98.8644, "RA_OF_ASC_NODE": 71.3443, "ARG_OF_PERICENTER": 48.8593, "MEAN_ANOMALY": 78.8379, "EPHEMERIS_TYPE": 0, "CLASSIFICATION_TYPE": "U", "NORAD_CAT_ID": 30348, "ELEMENT_SET_NO": 999, "REV_AT_EPOCH": 97392, "BSTAR": 0.002679, "MEAN_MOTION_DOT": 7.592e-05, "MEAN_MOTION_DDOT": 0}, "tle": {"line1": "1 30348U 99025ABK 25336.84961203  .00007592  00000+0  26790-2 0  9993", "line2": "2 30348  98.8644  71.3443 0017713  48.8593  78.8379 14.34916025973924"}}, "geometry": {"type": "Point", "coordinates": [-126.77292760757352, -63.893121029390926]}}, {"type": "Feature", "properties": {"norad_id": 30349, "name": "FENGYUN 1C DEB", "group": "fengyun-1c-debris", "lat": -43.36598781280011, "lon": -51.64863208737085, "alt_km": 853.6588101883372, "timestamp": "2025-12-03T06:58:43.513713+00:00", "meta": {"OBJECT_NAME": "FENGYUN 1C DEB", "OBJECT_ID": "1999-025ABL", "EPOCH": "2025-12-02T19:33:40.471200", "MEAN_MOTION": 14.10976518, "ECCENTRICITY": 0.0089605, "INCLINATION": 98.5832, "RA_OF_ASC_NODE": 299.6953, "ARG_OF_PERICENTER": 40.0192, "MEAN_ANOMALY": 21.9806, "EPHEMERIS_TYPE": 0, "CLASSIFICATION_TYPE": "U", "NORAD_CAT_ID": 30349, "ELEMENT_SET_NO": 999, "REV_AT_EPOCH": 96091, "BSTAR": 0.0026803, "MEAN_MOTION_DOT": 4.96e-05, "MEAN_MOTION_DDOT": 0}, "tle": {"line1": "1 30349U 99025ABL 25336.81505175  .00004960  00000+0  26803-2 0  9994", "line2": "2 30349  98.5832 299.6953 0089605  40.0192  21.9806 14.10976518960916"}}, "geometry": {"type": "Point", "coordinates": [-51.64863208737085, -43.36598781280011]}}, {"type": "Feature", "properties": {"norad_id": 30350, "name": "FENGYUN 1C DEB", "group": "fengyun-1c-debris", "lat": 43.44738719646515, "lon": -15.28137025894569, "alt_km": 1102.2925817885216, "timestamp": "2025-12-03T06:58:43.513723+00:00", "meta": {"OBJECT_NAME": "FENGYUN 1C DEB", "OBJECT_ID": "1999-025ABM", "EPOCH": "2025-12-02T11:21:09.520704", "MEAN_MOTION": 13.82783994, "ECCENTRICITY": 0.02195475, "INCLINATION": 98.0929, "RA_OF_ASC_NODE": 156.2693, "ARG_OF_PERICENTER": 337.0745, "MEAN_ANOMALY": 49.4769, "EPHEMERIS_TYPE": 0, "CLASSIFICATION_TYPE": "U", "NORAD_CAT_ID": 30350, "ELEMENT_SET_NO": 999, "REV_AT_EPOCH": 94840, "BSTAR": 0.00083660966, "MEAN_MOTION_DOT": 1.059e-05, "MEAN_MOTION_DDOT": 0}, "tle": {"line1": "1 30350U 99025ABM 25336.47302686  .00001059  00000+0  83661-3 0  9992", "line2": "2 30350  98.0929 156.2693 0219547 337.0745  49.4769 13.82783994948407"}}, "geometry": {"type": "Point", "coordinates": [-15.28137025894569, 43.44738719646515]}}, {"type": "Feature", "properties": {"norad_id": 30352, "name": "FENGYUN 1C DEB", "group": "fengyun-1c-debris", "lat": -73.11869621920157, "lon": 29.207556284414036, "alt_km": 865.2929802894587, "timestamp": "2025-12-03T06:58:43.513735+00:00", "meta": {"OBJECT_NAME": "FENGYUN 1C DEB", "OBJECT_ID": "1999-025ABP", "EPOCH": "2025-12-02T20:14:28.794912", "MEAN_MOTION": 14.07572889, "ECCENTRICITY": 0.002823, "INCLINATION": 98.7651, "RA_OF_ASC_NODE": 358.2164, "ARG_OF_PERICENTER": 347.6945, "MEAN_ANOMALY": 191.3086, "EPHEMERIS_TYPE": 0, "CLASSIFICATION_TYPE": "U", "NORAD_CAT_ID": 30352, "ELEMENT_SET_NO": 999, "REV_AT_EPOCH": 96771, "BSTAR": 0.00019337, "MEAN_MOTION_DOT": 2.85e-06, "MEAN_MOTION_DDOT": 0}, "tle": {"line1": "1 30352U 99025ABP 25336.84338883  .00000285  00000+0  19337-3 0  9992", "line2": "2 30352  98.7651 358.2164 0028230 347.6945 191.3086 14.07572889967712"}}, "geometry": {"type": "Point", "coordinates": [29.207556284414036, -73.11869621920157]}}, {"type": "Feature", "properties": {"norad_id": 30355, "name": "FENGYUN 1C DEB", "group": "fengyun-1c-debris", "lat": -71.81350111973019, "lon": 134.54783395998072, "alt_km": 831.9682314164893, "timestamp": "2025-12-03T06:58:43.513745+00:00", "meta": {"OBJECT_NAME": "FENGYUN 1C DEB", "OBJECT_ID": "1999-025ABS", "EPOCH": "2025-12-02T06:09:21.187872", "MEAN_MOTION": 14.18773726, "ECCENTRICITY": 0.0053562, "INCLINATION": 98.5889, "RA_OF_ASC_NODE": 340.9358, "ARG_OF_PERICENTER": 340.0272, "MEAN_ANOMALY": 34.7296, "EPHEMERIS_TYPE": 0, "CLASSIFICATION_TYPE": "U", "NORAD_CAT_ID": 30355, "ELEMENT_SET_NO": 999, "REV_AT_EPOCH": 97202, "BSTAR": 0.00084805, "MEAN_MOTION_DOT": 1.745e-05, "MEAN_MOTION_DDOT": 0}, "tle": {"line1": "1 30355U 99025ABS 25336.25649523  .00001745  00000+0  84805-3 0  9990", "line2": "2 30355  98.5889 340.9358 0053562 340.0272  34.7296 14.18773726972023"}}, "geometry": {"type": "Point", "coordinates": [134.54783395998072, -71.81350111973019]}}, {"type": "Feature", "properties": {"norad_id": 30356, "name": "FENGYUN 1C DEB", "group": "fengyun-1c-debris", "lat": -69.05322739265245, "lon": 129.2946926588435, "alt_km": 840.47228976941, "timestamp": "2025-12-03T06:58:43.513756+00:00", "meta": {"OBJECT_NAME": "FENGYUN 1C DEB", "OBJECT_ID": "1999-025ABT", "EPOCH": "2025-12-02T13:20:40.255872", "MEAN_MOTION": 14.12989658, "ECCENTRICITY": 0.00522654, "INCLINATION": 98.6811, "RA_OF_ASC_NODE": 332.1051, "ARG_OF_PERICENTER": 318.2642, "MEAN_ANOMALY": 157.6435, "EPHEMERIS_TYPE": 0, "CLASSIFICATION_TYPE": "U", "NORAD_CAT_ID": 30356, "ELEMENT_SET_NO": 999, "REV_AT_EPOCH": 96877, "BSTAR": 0.0009005723, "MEAN_MOTION_DOT": 1.658e-05, "MEAN_MOTION_DDOT": 0}, "tle": {"line1": "1 30356U 99025ABT 25336.55602148  .00001658  00000+0  90057-3 0  9995", "line2": "2 30356  98.6811 332.1051 0052265 318.2642 157.6435 14.12989658968774"}}, "geometry": {"type": "Point", "coordinates": [129.2946926588435, -69.05322739265245]}}]}